[{"OBJECT_NAME":"ONEWEB-0085","OBJECT_ID":"2020-020Q","EPOCH":"2026-03-09T22:41:42.827712","MEAN_MOTION":13.11416682,"ECCENTRICITY":0.00018325,"INCLINATION":87.8865,"RA_OF_ASC_NODE":40.7983,"ARG_OF_PERICENTER":82.3092,"MEAN_ANOMALY":277.8243,"EPHEMERIS_TYPE":0,"CLASSIFICATION_TYPE":"U","NORAD_CAT_ID":45438,"ELEMENT_SET_NO":999,"REV_AT_EPOCH":28966,"BSTAR":-0.0012789285,"MEAN_MOTION_DOT":-4.41e-6,"MEAN_MOTION_DDOT":0},{"OBJECT_NAME":"COSMOS 839 DEB","OBJECT_ID":"1976-067BG","EPOCH":"2026-03-09T16:29:20.580864","MEAN_MOTION":12.30398118,"ECCENTRICITY":0.07183487,"INCLINATION":65.8057,"RA_OF_ASC_NODE":174.5767,"ARG_OF_PERICENTER":132.8772,"MEAN_ANOMALY":345.3658,"EPHEMERIS_TYPE":0,"CLASSIFICATION_TYPE":"U","NORAD_CAT_ID":14919,"ELEMENT_SET_NO":999,"REV_AT_EPOCH":62230,"BSTAR":2.542409e-6,"MEAN_MOTION_DOT":-5.3e-7,"MEAN_MOTION_DDOT":0}]
